{
    "links": {
        "self": "http://www.neowsapp.com/rest/v1/neo/3781236?api_key=iIulBulltgU6a56xZRHN4H3l9WmuAYTsLGpBGhQ2"
    },
    "id": "3781236",
    "neo_reference_id": "3781236",
    "name": "(2017 QW32)",
    "designation": "2017 QW32",
    "nasa_jpl_url": "http://ssd.jpl.nasa.gov/sbdb.cgi?sstr=3781236",
    "absolute_magnitude_h": 24.2,
    "estimated_diameter": {
        "kilometers": {
            "estimated_diameter_min": 0.0384197891,
            "estimated_diameter_max": 0.0859092601
        },
        "meters": {
            "estimated_diameter_min": 38.4197891064,
            "estimated_diameter_max": 85.9092601232
        },
        "miles": {
            "estimated_diameter_min": 0.0238729428,
            "estimated_diameter_max": 0.0533815229
        },
        "feet": {
            "estimated_diameter_min": 126.0491808919,
            "estimated_diameter_max": 281.8545369825
        }
    },
    "is_potentially_hazardous_asteroid": false,
    "close_approach_data": [
        {
            "close_approach_date": "1911-10-10",
            "close_approach_date_full": "1911-Oct-10 17:51",
            "epoch_date_close_approach": -1837490940000,
            "relative_velocity": {
                "kilometers_per_second": "7.4364690101",
                "kilometers_per_hour": "26771.2884364717",
                "miles_per_hour": "16634.6375287621"
            },
            "miss_distance": {
                "astronomical": "0.1677731898",
                "lunar": "65.2637708322",
                "kilometers": "25098511.837185726",
                "miles": "15595492.0830499788"
            },
            "orbiting_body": "Earth"
        },
        {
            "close_approach_date": "1912-01-12",
            "close_approach_date_full": "1912-Jan-12 07:28",
            "epoch_date_close_approach": -1829406720000,
            "relative_velocity": {
                "kilometers_per_second": "10.9399116444",
                "kilometers_per_hour": "39383.681919997",
                "miles_per_hour": "24471.4883574559"
            },
            "miss_distance": {
                "astronomical": "0.0931456838",
                "lunar": "36.2336709982",
                "kilometers": "13934395.896173506",
                "miles": "8658432.1130501428"
            },
            "orbiting_body": "Mars"
        },
        {
            "close_approach_date": "1930-08-20",
            "close_approach_date_full": "1930-Aug-20 04:15",
            "epoch_date_close_approach": -1242330300000,
            "relative_velocity": {
                "kilometers_per_second": "15.2997143065",
                "kilometers_per_hour": "55078.9715035062",
                "miles_per_hour": "34223.9309322758"
            },
            "miss_distance": {
                "astronomical": "0.3807230234",
                "lunar": "148.1012561026",
                "kilometers": "56955353.360600158",
                "miles": "35390415.5029038604"
            },
            "orbiting_body": "Earth"
        },
        {
            "close_approach_date": "2017-09-18",
            "close_approach_date_full": "2017-Sep-18 05:25",
            "epoch_date_close_approach": 1505712300000,
            "relative_velocity": {
                "kilometers_per_second": "6.4347419545",
                "kilometers_per_hour": "23165.0710362021",
                "miles_per_hour": "14393.8742780224"
            },
            "miss_distance": {
                "astronomical": "0.1077624943",
                "lunar": "41.9196102827",
                "kilometers": "16121039.613167141",
                "miles": "10017149.5142269058"
            },
            "orbiting_body": "Earth"
        },
        {
            "close_approach_date": "2085-11-05",
            "close_approach_date_full": "2085-Nov-05 04:21",
            "epoch_date_close_approach": 3655772460000,
            "relative_velocity": {
                "kilometers_per_second": "17.5208814638",
                "kilometers_per_hour": "63075.1732696966",
                "miles_per_hour": "39192.4597463845"
            },
            "miss_distance": {
                "astronomical": "0.4998269858",
                "lunar": "194.4326974762",
                "kilometers": "74773052.444200246",
                "miles": "46461820.3255895548"
            },
            "orbiting_body": "Earth"
        }
    ],
    "orbital_data": {
        "orbit_id": "8",
        "orbit_determination_date": "2017-10-27 06:41:42",
        "first_observation_date": "2017-08-17",
        "last_observation_date": "2017-10-26",
        "data_arc_in_days": 70,
        "observations_used": 43,
        "orbit_uncertainty": "6",
        "minimum_orbit_intersection": ".0944404",
        "jupiter_tisserand_invariant": "3.287",
        "epoch_osculation": "2459000.5",
        "eccentricity": ".5490320487253511",
        "semi_major_axis": "2.424512661907699",
        "inclination": "1.968163308882481",
        "ascending_node_longitude": "149.9847673217357",
        "orbital_period": "1378.907429864754",
        "perihelion_distance": "1.093377507979961",
        "perihelion_argument": "217.1924183602437",
        "aphelion_distance": "3.755647815835437",
        "perihelion_time": "2459402.054176757887",
        "mean_anomaly": "255.163735794057",
        "mean_motion": ".2610762638615338",
        "equinox": "J2000",
        "orbit_class": {
            "orbit_class_type": "AMO",
            "orbit_class_description": "Near-Earth asteroid orbits similar to that of 1221 Amor",
            "orbit_class_range": "1.017 AU < q (perihelion) < 1.3 AU"
        }
    },
    "is_sentry_object": false
}